NORAD_CAT_ID,OBJECT_NAME,OBJECT_TYPE,EPOCH,MEAN_MOTION,ECCENTRICITY,INCLINATION,RA_OF_ASC_NODE,ARG_OF_PERICENTER,MEAN_ANOMALY,BSTAR,MEAN_MOTION_DOT,MEAN_MOTION_DDOT,TLE_LINE0,TLE_LINE1,TLE_LINE2,SEMIMAJOR_AXIS,PERIOD,APOGEE,PERIGEE,DECAYED
51461.0,STARLINK-3181,PAYLOAD,2022-09-19 20:41:39,15.088437400000002,0.0001905,53.2178,206.1418,61.8896,298.2288,7.0763e-05,8.38e-06,0.0,0 STARLINK-3181,1 51461U 22010F   22262.86226134  .00000838  00000-0  70763-4 0  9994,2 51461  53.2178 206.1418 0001905  61.8896 298.2288 15.08843740 36075,6917.869000000002,95.437,541.052,538.4159999999998,0.0
51461.0,STARLINK-3181,PAYLOAD,2022-09-20 12:35:31,15.08838005,0.0002061,53.22,203.1715,51.5934,308.5243,-3.4624e-05,-8.39e-06,0.0,0 STARLINK-3181,1 51461U 22010F   22263.52466763 -.00000839  00000-0 -34624-4 0  9991,2 51461  53.2200 203.1715 0002061  51.5934 308.5243 15.08838005 36176,6917.886,95.438,541.177,538.326,0.0
51461.0,STARLINK-3181,PAYLOAD,2022-09-21 18:47:51,15.08828178,0.0002064,53.2188,197.5219,56.5308,303.5881,7.1128e-06,-1.75e-06,0.0,0 STARLINK-3181,1 51461U 22010F   22264.78323539 -.00000175  00000-0  71128-5 0  9996,2 51461  53.2188 197.5219 0002064  56.5308 303.5881 15.08828178 36363,6917.917,95.438,541.2090000000002,538.354,0.0
51461.0,STARLINK-3181,PAYLOAD,2022-09-21 20:23:14,15.08826917,0.0002098,53.2187,197.2247,40.4006,319.7141,-4.0479e-05,-9.32e-06,0.0,0 STARLINK-3181,1 51461U 22010F   22264.84947729 -.00000932  00000-0 -40479-4 0  9992,2 51461  53.2187 197.2247 0002098  40.4006 319.7141 15.08826917 35876,6917.92,95.438,541.237,538.3340000000002,0.0
51461.0,STARLINK-3181,PAYLOAD,2022-09-22 12:17:06,15.08831541,0.0001903,53.2192,194.2494,58.3809,301.7369,5.6104e-05,6.05e-06,0.0,0 STARLINK-3181,1 51461U 22010F   22265.51187729  .00000605  00000-0  56104-4 0  9990,2 51461  53.2192 194.2494 0001903  58.3809 301.7369 15.08831541 35979,6917.906,95.438,541.0880000000002,538.455,0.0
51461.0,STARLINK-3181,PAYLOAD,2022-09-23 02:35:33,15.08843256,0.0001728,53.2189,191.5744,68.563,291.5546,0.00010036,1.31e-05,0.0,0 STARLINK-3181,1 51461U 22010F   22266.10803023  .00001310  00000-0  10036-3 0  9995,2 51461  53.2189 191.5744 0001728  68.5630 291.5546 15.08843256 36063,6917.87,95.437,540.931,538.54,0.0
51461.0,STARLINK-3181,PAYLOAD,2022-09-24 11:58:39,15.08846222,0.0001831999999999,53.2183,185.3283,56.9969,303.1199,0.00020582,2.99e-05,0.0,0 STARLINK-3181,1 51461U 22010F   22267.49907126  .00002990  00000-0  20582-3 0  9999,2 51461  53.2183 185.3283 0001832  56.9969 303.1199 15.08846222 36271,6917.861,95.437,540.994,538.4590000000002,0.0
51461.0,STARLINK-3181,PAYLOAD,2022-09-25 11:49:26,15.088483800000002,0.0001841,53.2185,180.8674,58.3381,301.779,7.9231e-05,9.73e-06,0.0,0 STARLINK-3181,1 51461U 22010F   22268.49266596  .00000973  00000-0  79231-4 0  9994,2 51461  53.2185 180.8674 0001841  58.3381 301.7790 15.08848380 36426,6917.855,95.437,540.993,538.446,0.0
51461.0,STARLINK-3181,PAYLOAD,2022-09-26 02:07:55,15.08827202,0.0001691,53.2192,178.1917,61.4244,298.6918,9.4169e-05,1.21e-05,0.0,0 STARLINK-3181,1 51461U 22010F   22269.08883683  .00001210  00000-0  94169-4 0  9994,2 51461  53.2192 178.1917 0001691  61.4244 298.6918 15.08827202 37012,6917.92,95.438,540.9540000000002,538.615,0.0
51461.0,STARLINK-3181,PAYLOAD,2022-09-26 11:40:14,15.08836306,0.0001684,53.219,176.4081,60.1173,299.9986,-2.5541e-05,-6.94e-06,0.0,0 STARLINK-3181,1 51461U 22010F   22269.48627513 -.00000694  00000-0 -25541-4 0  9991,2 51461  53.2190 176.4081 0001684  60.1173 299.9986 15.08836306 36576,6917.892,95.438,540.922,538.592,0.0
51461.0,STARLINK-3181,PAYLOAD,2022-09-26 19:37:09,15.08836242,0.0001679,53.2188,174.9218,57.6487,302.4668,-2.8809e-05,-7.46e-06,0.0,0 STARLINK-3181,1 51461U 22010F   22269.81747554 -.00000746  00000-0 -28809-4 0  9994,2 51461  53.2188 174.9218 0001679  57.6487 302.4668 15.08836242 36623,6917.892,95.438,540.918,538.595,0.0
51461.0,STARLINK-3181,PAYLOAD,2022-09-27 01:58:42,15.08841551,0.0001633,53.2187,173.7324,56.2925,303.8223,-5.451300000000001e-05,-1.156e-05,0.0,0 STARLINK-3181,1 51461U 22010F   22270.08243389 -.00001156  00000-0 -54513-4 0  9999,2 51461  53.2187 173.7324 0001633  56.2925 303.8223 15.08841551 37160,6917.876,95.437,540.87,538.611,0.0
51461.0,STARLINK-3181,PAYLOAD,2022-09-27 19:27:56,15.08823845,0.0001545,53.2184,170.4616,55.3852,304.7286,0.00034191,5.155e-05,0.0,0 STARLINK-3181,1 51461U 22010F   22270.81107604  .00005155  00000-0  34191-3 0  9999,2 51461  53.2184 170.4616 0001545  55.3852 304.7286 15.08823845 36777,6917.93,95.439,540.864,538.726,0.0
51461.0,STARLINK-3181,PAYLOAD,2022-09-28 03:24:53,15.08829691,0.0001485,53.2184,168.9753,49.3875,310.7247,3.0241e-05,1.93e-06,0.0,0 STARLINK-3181,1 51461U 22010F   22271.14228141  .00000193  00000-0  30241-4 0  9996,2 51461  53.2184 168.9753 0001485  49.3875 310.7247 15.08829691 36827,6917.9119999999975,95.438,540.804,538.75,0.0
51461.0,STARLINK-3181,PAYLOAD,2022-09-28 20:54:07,15.08839882,0.0001554999999999,53.2183,165.7044,46.9006,313.2116,0.00011918,1.609e-05,0.0,0 STARLINK-3181,1 51461U 22010F   22271.87091600  .00001609  00000-0  11918-3 0  9996,2 51461  53.2183 165.7044 0001555  46.9006 313.2116 15.08839882 36939,6917.880999999999,95.438,540.821,538.67,0.0
51461.0,STARLINK-3181,PAYLOAD,2022-09-29 09:37:13,15.08828578,0.0001699999999999,53.2183,163.32399999999996,50.8048,309.3095,-2.0257e-06,-3.2e-06,0.0,0 STARLINK-3181,1 51461U 22010F   22272.40084994 -.00000320  00000-0 -20257-5 0  9993,2 51461  53.2183 163.3240 0001700  50.8048 309.3095 15.08828578 37510,6917.915,95.438,540.956,538.604,0.0
51461.0,STARLINK-3181,PAYLOAD,2022-09-30 09:28:00,15.08835869,0.0001214,53.2183,158.8646,61.01,299.1014,0.00015493,2.178e-05,0.0,0 STARLINK-3181,1 51461U 22010F   22273.39444827  .00002178  00000-0  15493-3 0  9992,2 51461  53.2183 158.8646 0001214  61.0100 299.1014 15.08835869 37161,6917.893,95.438,540.5980000000002,538.918,0.0
51461.0,STARLINK-3181,PAYLOAD,2022-09-30 15:49:32,15.08847827,0.0001696,53.2179,157.6748,58.5329,301.5828,0.00014806,2.07e-05,0.0,0 STARLINK-3181,1 51461U 22010F   22273.65940269  .00002070  00000-0  14806-3 0  9990,2 51461  53.2179 157.6748 0001696  58.5329 301.5828 15.08847827 37702,6917.856,95.437,540.895,538.548,0.0
51461.0,STARLINK-3181,PAYLOAD,2022-09-30 20:35:41,15.08858818,0.0001703,53.2181,156.7831,51.2986,308.8158,0.00015034,2.107e-05,0.0,0 STARLINK-3181,1 51461U 22010F   22273.85811629  .00002107  00000-0  15034-3 0  9994,2 51461  53.2181 156.7831 0001703  51.2986 308.8158 15.08858818 37232,6917.823,95.436,540.866,538.51,0.0
51461.0,STARLINK-3181,PAYLOAD,2022-10-01 09:18:46,15.08857904,0.0001738,53.2165,154.4044,53.68,306.4352,0.00053835,8.294e-05,0.0,0 STARLINK-3181,1 51461U 22010F   22274.38804044  .00008294  00000-0  53835-3 0  9990,2 51461  53.2165 154.4044 0001738  53.6800 306.4352 15.08857904 37318,6917.826,95.436,540.893,538.488,0.0
51461.0,STARLINK-3181,PAYLOAD,2022-10-01 20:26:28,15.08848923,0.0002026,53.2169,152.3205,59.88800000000001,300.2313,3.8895e-05,3.31e-06,0.0,0 STARLINK-3181,1 51461U 22010F   22274.85171938  .00000331  00000-0  38895-4 0  9995,2 51461  53.2169 152.3205 0002026  59.8880 300.2313 15.08848923 37382,6917.853,95.437,541.12,538.317,0.0
51461.0,STARLINK-3181,PAYLOAD,2022-10-02 01:12:38,15.08842433,0.0001758,53.2177,151.4311,54.4177,305.6978,0.00010676,1.412e-05,0.0,0 STARLINK-3181,1 51461U 22010F   22275.05044469  .00001412  00000-0  10676-3 0  9993,2 51461  53.2177 151.4311 0001758  54.4177 305.6978 15.08842433 37915,6917.873000000001,95.437,540.9540000000002,538.5219999999998,0.0
51461.0,STARLINK-3181,PAYLOAD,2022-10-02 09:09:33,15.08846466,0.0001773,53.2181,149.9443,55.0728,305.0431,0.00011406,1.528e-05,0.0,0 STARLINK-3181,1 51461U 22010F   22275.38164102  .00001528  00000-0  11406-3 0  9996,2 51461  53.2181 149.9443 0001773  55.0728 305.0431 15.08846466 37462,6917.861,95.437,540.952,538.499,0.0
51461.0,STARLINK-3181,PAYLOAD,2022-10-02 20:17:15,15.08856998,0.0001876999999999,53.218,147.8651,52.2169,307.8993,0.00013436,1.852e-05,0.0,0 STARLINK-3181,1 51461U 22010F   22275.84531299  .00001852  00000-0  13436-3 0  9997,2 51461  53.2180 147.8651 0001877  52.2169 307.8993 15.08856998 37534,6917.828,95.436,540.992,538.395,0.0
51461.0,STARLINK-3181,PAYLOAD,2022-10-03 09:00:19,15.08858944,0.0001823,53.219,145.484,58.5074,301.6096,7.1084e-05,8.44e-06,0.0,0 STARLINK-3181,1 51461U 22010F   22276.37522746  .00000844  00000-0  71084-4 0  9997,2 51461  53.2190 145.4840 0001823  58.5074 301.6096 15.08858944 37612,6917.821999999999,95.436,540.9490000000002,538.4259999999998,0.0
51461.0,STARLINK-3181,PAYLOAD,2022-10-03 15:21:51,15.08856509,0.0001723,53.2189,144.2944,58.2137,301.9023,0.0001464,2.044e-05,0.0,0 STARLINK-3181,1 51461U 22010F   22276.64018480  .00002044  00000-0  14640-3 0  9990,2 51461  53.2189 144.2944 0001723  58.2137 301.9023 15.08856509 37650,6917.83,95.437,540.887,538.503,0.0
51461.0,STARLINK-3181,PAYLOAD,2022-10-04 00:54:10,15.0885419,0.0001818,53.2186,142.5101,59.6799,300.4372,0.00025007,3.696e-05,0.0,0 STARLINK-3181,1 51461U 22010F   22277.03762684  .00003696  00000-0  25007-3 0  9999,2 51461  53.2186 142.5101 0001818  59.6799 300.4372 15.08854190 38215,6917.837,95.437,540.96,538.444,0.0
51461.0,STARLINK-3181,PAYLOAD,2022-10-04 21:34:11,15.08845164,0.0001754999999999,53.2198,138.6445,61.0599,299.0569,6.8723e-05,8.06e-06,0.0,0 STARLINK-3181,1 51461U 22010F   22277.89874881  .00000806  00000-0  68723-4 0  9999,2 51461  53.2198 138.6445 0001755  61.0599 299.0569 15.08845164 37840,6917.865,95.437,540.944,538.516,0.0
51461.0,STARLINK-3181,PAYLOAD,2022-10-05 19:49:36,15.088300899999998,0.0001751999999999,53.2191,134.4824,59.7582,300.3584,-8.7181e-05,-1.675e-05,0.0,0 STARLINK-3181,1 51461U 22010F   22278.82611775 -.00001675  00000-0 -87181-4 0  9990,2 51461  53.2191 134.4824 0001752  59.7582 300.3584 15.08830090 37981,6917.911,95.438,540.988,538.564,0.0
